NORAD_CAT_ID,OBJECT_NAME,OBJECT_TYPE,EPOCH,MEAN_MOTION,ECCENTRICITY,INCLINATION,RA_OF_ASC_NODE,ARG_OF_PERICENTER,MEAN_ANOMALY,BSTAR,MEAN_MOTION_DOT,MEAN_MOTION_DDOT,TLE_LINE0,TLE_LINE1,TLE_LINE2,SEMIMAJOR_AXIS,PERIOD,APOGEE,PERIGEE,DECAYED
52578.0,STARLINK-3833,PAYLOAD,2024-06-03 22:42:38,15.08847735,0.0001267,53.2166,143.9967,84.7818,275.3318,0.00017154,2.444e-05,0.0,0 STARLINK-3833,1 52578U 22051AU  24155.94628467  .00002444  00000-0  17154-3 0  9995,2 52578  53.2166 143.9967 0001267  84.7818 275.3318 15.08847735114196,6917.857,95.437,540.598,538.845,0.0
52578.0,STARLINK-3833,PAYLOAD,2024-06-04 08:14:57,15.08856877,0.0001279,53.2167,142.2127,85.7831,274.3308,0.0002023,2.935e-05,0.0,0 STARLINK-3833,1 52578U 22051AU  24156.34371710  .00002935  00000-0  20230-3 0  9990,2 52578  53.2167 142.2127 0001279  85.7831 274.3308 15.08856877114326,6917.829,95.436,540.579,538.809,0.0
52578.0,STARLINK-3833,PAYLOAD,2024-06-04 16:11:52,15.08857297,0.0001303,53.2171,140.7263,90.6762,269.4379,0.00020535,2.983e-05,0.0,0 STARLINK-3833,1 52578U 22051AU  24156.67491498  .00002983  00000-0  20535-3 0  9993,2 52578  53.2171 140.7263 0001303  90.6762 269.4379 15.08857297114309,6917.828,95.436,540.594,538.791,0.0
52578.0,STARLINK-3833,PAYLOAD,2024-06-05 04:54:58,15.08833825,0.0001252,53.2153,138.3465,95.676,264.4375,-9.9848e-05,-1.876e-05,0.0,0 STARLINK-3833,1 52578U 22051AU  24157.20484828 -.00001876  00000-0 -99848-4 0  9998,2 52578  53.2153 138.3465 0001252  95.6760 264.4375 15.08833825114450,6917.899,95.438,540.63,538.898,0.0
52578.0,STARLINK-3833,PAYLOAD,2024-06-05 06:30:22,15.08835315,0.000129,53.2156,138.0493,94.9753,265.1386,-7.0818e-05,-1.415e-05,0.0,0 STARLINK-3833,1 52578U 22051AU  24157.27108803 -.00001415  00000-0 -70818-4 0  9996,2 52578  53.2156 138.0493 0001290  94.9753 265.1386 15.08835315114396,6917.895,95.438,540.652,538.867,0.0
52578.0,STARLINK-3833,PAYLOAD,2024-06-05 16:02:40,15.08841464,0.0001263,53.2153,136.2651,96.6887,263.4249,-6.8962e-06,-3.98e-06,0.0,0 STARLINK-3833,1 52578U 22051AU  24157.66852570 -.00000398  00000-0 -68962-5 0  9993,2 52578  53.2153 136.2651 0001263  96.6887 263.4249 15.08841464114522,6917.876,95.437,540.615,538.867,0.0
52578.0,STARLINK-3833,PAYLOAD,2024-06-05 22:24:13,15.08836248,0.0001303,53.2152,135.076,97.4655,262.6485,-6.2597e-05,-1.284e-05,0.0,0 STARLINK-3833,1 52578U 22051AU  24157.93348704 -.00001284  00000-0 -62597-4 0  9994,2 52578  53.2152 135.0760 0001303  97.4655 262.6485 15.08836248114499,6917.892,95.438,540.658,538.855,0.0
52578.0,STARLINK-3833,PAYLOAD,2024-06-06 04:45:46,15.08835266,0.0001316,53.2154,133.8864,99.0621,261.052,-1.4428e-05,-5.17e-06,0.0,0 STARLINK-3833,1 52578U 22051AU  24158.19844918 -.00000517  00000-0 -14428-4 0  9999,2 52578  53.2154 133.8864 0001316  99.0621 261.0520 15.08835266114534,6917.895,95.438,540.67,538.849,0.0
52578.0,STARLINK-3833,PAYLOAD,2024-06-07 01:25:47,15.0883684,0.0001345,53.2159,130.0207,101.8253,258.289,0.00029117,4.349e-05,0.0,0 STARLINK-3833,1 52578U 22051AU  24159.05957464  .00004349  00000-0  29117-3 0  9991,2 52578  53.2159 130.0207 0001345 101.8253 258.2890 15.08836840114733,6917.89,95.438,540.686,538.825,0.0
52578.0,STARLINK-3833,PAYLOAD,2024-06-07 22:05:47,15.0884677,0.0001422,53.216,126.1539,105.5557,254.5592,0.00032879,4.95e-05,0.0,0 STARLINK-3833,1 52578U 22051AU  24159.92069203  .00004950  00000-0  32879-3 0  9999,2 52578  53.2160 126.1539 0001422 105.5557 254.5592 15.08846770114790,6917.86,95.437,540.708,538.741,0.0
52578.0,STARLINK-3833,PAYLOAD,2024-06-08 04:27:19,15.0885285,0.0001169,53.2158,124.9677,87.473,272.6396,-0.00014684,-2.625e-05,0.0,0 STARLINK-3833,1 52578U 22051AU  24160.18564687 -.00002625  00000-0 -14684-3 0  9998,2 52578  53.2158 124.9677 0001169  87.4730 272.6396 15.08852850114907,6917.841,95.437,540.515,538.897,0.0
52578.0,STARLINK-3833,PAYLOAD,2024-06-08 07:38:06,15.08847225,0.0001316,53.2159,124.3726,88.6046,271.5096,0.00022904,3.36e-05,0.0,0 STARLINK-3833,1 52578U 22051AU  24160.31813113  .00003360  00000-0  22904-3 0  9993,2 52578  53.2159 124.3726 0001316  88.6046 271.5096 15.08847225114853,6917.858,95.437,540.634,538.813,0.0
52578.0,STARLINK-3833,PAYLOAD,2024-06-08 21:56:34,15.08840831,0.0001361,53.2163,121.6951,88.5271,271.5877,0.00012898,1.765e-05,0.0,0 STARLINK-3833,1 52578U 22051AU  24160.91429344  .00001765  00000-0  12898-3 0  9996,2 52578  53.2163 121.6951 0001361  88.5271 271.5877 15.08840831115019,6917.878,95.438,540.684,538.801,0.0
52578.0,STARLINK-3833,PAYLOAD,2024-06-09 04:18:07,15.08833737,0.0001224,53.2165,120.5063,96.5164,263.5968,-4.4765e-06,-3.59e-06,0.0,0 STARLINK-3833,1 52578U 22051AU  24161.17925648 -.00000359  00000-0 -44765-5 0  9993,2 52578  53.2165 120.5063 0001224  96.5164 263.5968 15.08833737115054,6917.9,95.438,540.611,538.918,0.0
52578.0,STARLINK-3833,PAYLOAD,2024-06-09 13:50:26,15.08842208,0.000133,53.2181,118.7226,98.5152,261.599,7.3283e-05,8.79e-06,0.0,0 STARLINK-3833,1 52578U 22051AU  24161.57669260  .00000879  00000-0  73283-4 0  9993,2 52578  53.2181 118.7226 0001330  98.5152 261.5990 15.08842208115044,6917.874,95.437,540.659,538.819,0.0
52578.0,STARLINK-3833,PAYLOAD,2024-06-09 21:47:22,15.08832498,0.0001612,53.2197,117.2406,106.4316,253.6853,-9.6376e-06,-4.41e-06,0.0,0 STARLINK-3833,1 52578U 22051AU  24161.90789972 -.00000441  00000-0 -96376-5 0  9999,2 52578  53.2197 117.2406 0001612 106.4316 253.6853 15.08832498115094,6917.903,95.438,540.883,538.653,0.0
52578.0,STARLINK-3833,PAYLOAD,2024-06-10 05:44:18,15.08835335,0.0001441,53.219,115.7507,94.4194,265.6962,4.0519e-05,3.57e-06,0.0,0 STARLINK-3833,1 52578U 22051AU  24162.23910212  .00000357  00000-0  40519-4 0  9990,2 52578  53.2190 115.7507 0001441  94.4194 265.6962 15.08835335115213,6917.895,95.438,540.757,538.763,0.0
52578.0,STARLINK-3833,PAYLOAD,2024-06-10 13:41:13,15.0884365,0.000142,53.2192,114.2636,92.983,267.1324,0.00012594,1.717e-05,0.0,0 STARLINK-3833,1 52578U 22051AU  24162.57029557  .00001717  00000-0  12594-3 0  9992,2 52578  53.2192 114.2636 0001420  92.9830 267.1324 15.08843650115194,6917.869,95.437,540.717,538.752,0.0
52578.0,STARLINK-3833,PAYLOAD,2024-06-11 05:35:05,15.08835947,0.0001318,53.2173,111.2892,95.6882,264.426,0.00013687,1.891e-05,0.0,0 STARLINK-3833,1 52578U 22051AU  24163.23270183  .00001891  00000-0  13687-3 0  9996,2 52578  53.2173 111.2892 0001318  95.6882 264.4260 15.08835947115365,6917.893,95.438,540.67,538.846,0.0
52578.0,STARLINK-3833,PAYLOAD,2024-06-11 13:32:00,15.0884807,0.0001248,53.2174,109.8014,95.9458,264.1677,0.00015781,2.225e-05,0.0,0 STARLINK-3833,1 52578U 22051AU  24163.56389361  .00002225  00000-0  15781-3 0  9990,2 52578  53.2174 109.8014 0001248  95.9458 264.1677 15.08848070115347,6917.856,95.437,540.584,538.857,0.0
52578.0,STARLINK-3833,PAYLOAD,2024-06-12 05:25:52,15.08839269,0.0001285,53.2167,106.8279,85.439,274.6749,0.00014917,2.087e-05,0.0,0 STARLINK-3833,1 52578U 22051AU  24164.22630465  .00002087  00000-0  14917-3 0  9994,2 52578  53.2167 106.8279 0001285  85.4390 274.6749 15.08839269115446,6917.883,95.438,540.637,538.859,0.0
52578.0,STARLINK-3833,PAYLOAD,2024-06-12 08:36:38,15.08846018,0.0001272,53.2164,106.2333,85.491,274.6227,0.00028189,4.202e-05,0.0,0 STARLINK-3833,1 52578U 22051AU  24164.35878221  .00004202  00000-0  28189-3 0  9999,2 52578  53.2164 106.2333 0001272  85.4910 274.6227 15.08846018115533,6917.862,95.437,540.607,538.847,0.0
52578.0,STARLINK-3833,PAYLOAD,2024-06-12 19:44:21,15.08834787,0.0001365,53.2159,104.152,91.8826,268.2322,8.153e-05,1.01e-05,0.0,0 STARLINK-3833,1 52578U 22051AU  24164.82246708  .00001010  00000-0  81530-4 0  9994,2 52578  53.2159 104.1520 0001365  91.8826 268.2322 15.08834787115605,6917.896,95.438,540.706,538.817,0.0
52578.0,STARLINK-3833,PAYLOAD,2024-06-12 21:19:44,15.08835613,0.0001353,53.2159,103.8545,91.4128,268.7019,0.00013406,1.846e-05,0.0,0 STARLINK-3833,1 52578U 22051AU  24164.88870719  .00001846  00000-0  13406-3 0  9998,2 52578  53.2159 103.8545 0001353  91.4128 268.7019 15.08835613115546,6917.894,95.438,540.695,538.823,0.0
52578.0,STARLINK-3833,PAYLOAD,2024-06-13 14:48:58,15.08848104,0.0001359,53.2163,100.5837,88.2407,271.8741,0.00028236,4.21e-05,0.0,0 STARLINK-3833,1 52578U 22051AU  24165.61734360  .00004210  00000-0  28236-3 0  9996,2 52578  53.2163 100.5837 0001359  88.2407 271.8741 15.08848104115657,6917.856,95.437,540.661,538.78,0.0
52578.0,STARLINK-3833,PAYLOAD,2024-06-13 21:10:31,15.08838887,0.000138,53.2162,99.394,90.8323,269.2828,0.00020275,2.94e-05,0.0,0 STARLINK-3833,1 52578U 22051AU  24165.88230786  .00002940  00000-0  20275-3 0  9991,2 52578  53.2162  99.3940 0001380  90.8323 269.2828 15.08838887115694,6917.884,95.438,540.703,538.794,0.0
52578.0,STARLINK-3833,PAYLOAD,2024-06-14 13:04:22,15.08854747,0.0001409,53.2163,96.4205,88.8067,271.3087,0.00037348,5.663e-05,0.0,0 STARLINK-3833,1 52578U 22051AU  24166.54470095  .00005663  00000-0  37348-3 0  9998,2 52578  53.2163  96.4205 0001409  88.8067 271.3087 15.08854747115796,6917.835,95.437,540.675,538.726,0.0
52578.0,STARLINK-3833,PAYLOAD,2024-06-14 22:36:41,15.08838749,0.0001539,53.2162,94.6375,88.5915,271.5254,7.201e-06,-1.73e-06,0.0,0 STARLINK-3833,1 52578U 22051AU  24166.94214606 -.00000173  00000-0  72010-5 0  9995,2 52578  53.2162  94.6375 0001539  88.5915 271.5254 15.08838749115855,6917.884,95.438,540.814,538.685,0.0
52578.0,STARLINK-3833,PAYLOAD,2024-06-15 04:58:13,15.08844102,0.0001609,53.2169,93.4465,97.9458,262.1716,0.00014795,2.068e-05,0.0,0 STARLINK-3833,1 52578U 22051AU  24167.20710415  .00002068  00000-0  14795-3 0  9992,2 52578  53.2169  93.4465 0001609  97.9458 262.1716 15.08844102115896,6917.868,95.437,540.846,538.62,0.0
52578.0,STARLINK-3833,PAYLOAD,2024-06-15 22:27:28,15.08839781,0.0001445,53.2177,90.1756,96.4747,263.641,0.00010608,1.401e-05,0.0,0 STARLINK-3833,1 52578U 22051AU  24167.93574459  .00001401  00000-0  10608-3 0  9997,2 52578  53.2177  90.1756 0001445  96.4747 263.6410 15.08839781116003,6917.881,95.438,540.746,538.746,0.0
